{
  "type": "FeatureCollection",
  "features": [
    {
      "type": "Feature",
      "properties": {
        "norad_id": 37530,
        "name": "COSMOS 2251 DEB",
        "group": "cosmos-2251-debris",
        "lat": -1.46616687804349,
        "lon": -25.714652065081964,
        "alt_km": 765.0623906080573,
        "timestamp": "2025-12-12T03:50:52.816158+00:00",
        "meta_object_name": "COSMOS 2251 DEB",
        "meta_object_id": "1993-036BNK",
        "meta_epoch": "2025-12-10T08:38:54.155328",
        "meta_mean_motion": 14.34498847,
        "meta_eccentricity": 0.00257113,
        "meta_inclination": 74.0355,
        "meta_ra_of_asc_node": 338.0003,
        "meta_arg_of_pericenter": 40.6247,
        "meta_mean_anomaly": 26.3966,
        "meta_ephemeris_type": 0,
        "meta_classification_type": "U",
        "meta_norad_cat_id": 37530,
        "meta_element_set_no": 999,
        "meta_rev_at_epoch": 85198,
        "meta_bstar": 0.00036135133,
        "meta_mean_motion_dot": 9.97e-06,
        "meta_mean_motion_ddot": 0,
        "tle_line1": "1 37530U 93036BNK 25344.36034902  .00000997  00000+0  36135-3 0  9999",
        "tle_line2": "2 37530  74.0355 338.0003 0025711  40.6247  26.3966 14.34498847851985"
      },
      "geometry": {
        "type": "Point",
        "coordinates": [
          -25.714652065081964,
          -1.46616687804349
        ]
      }
    },
    {
      "type": "Feature",
      "properties": {
        "norad_id": 37532,
        "name": "COSMOS 2251 DEB",
        "group": "cosmos-2251-debris",
        "lat": 54.10554440722375,
        "lon": 13.517994484855432,
        "alt_km": 756.0681439361533,
        "timestamp": "2025-12-12T03:50:52.816168+00:00",
        "meta_object_name": "COSMOS 2251 DEB",
        "meta_object_id": "1993-036BNM",
        "meta_epoch": "2025-12-11T09:48:08.550720",
        "meta_mean_motion": 14.42404906,
        "meta_eccentricity": 0.00159305,
        "meta_inclination": 74.0497,
        "meta_ra_of_asc_node": 218.1872,
        "meta_arg_of_pericenter": 319.0125,
        "meta_mean_anomaly": 220.6834,
        "meta_ephemeris_type": 0,
        "meta_classification_type": "U",
        "meta_norad_cat_id": 37532,
        "meta_element_set_no": 999,
        "meta_rev_at_epoch": 84896,
        "meta_bstar": 0.00034566726,
        "meta_mean_motion_dot": 1.119e-05,
        "meta_mean_motion_ddot": 0,
        "tle_line1": "1 37532U 93036BNM 25345.40843230  .00001119  00000+0  34567-3 0  9993",
        "tle_line2": "2 37532  74.0497 218.1872 0015930 319.0125 220.6834 14.42404906848965"
      },
      "geometry": {
        "type": "Point",
        "coordinates": [
          13.517994484855432,
          54.10554440722375
        ]
      }
    },
    {
      "type": "Feature",
      "properties": {
        "norad_id": 37533,
        "name": "COSMOS 2251 DEB",
        "group": "cosmos-2251-debris",
        "lat": -72.13804981942566,
        "lon": 130.41792921278048,
        "alt_km": 758.1920818491753,
        "timestamp": "2025-12-12T03:50:52.816178+00:00",
        "meta_object_name": "COSMOS 2251 DEB",
        "meta_object_id": "1993-036BNN",
        "meta_epoch": "2025-12-10T19:55:37.417152",
        "meta_mean_motion": 14.12152288,
        "meta_eccentricity": 0.01580439,
        "meta_inclination": 74.0697,
        "meta_ra_of_asc_node": 195.1706,
        "meta_arg_of_pericenter": 252.2523,
        "meta_mean_anomaly": 106.1316,
        "meta_ephemeris_type": 0,
        "meta_classification_type": "U",
        "meta_norad_cat_id": 37533,
        "meta_element_set_no": 999,
        "meta_rev_at_epoch": 62894,
        "meta_bstar": 0.0019185157,
        "meta_mean_motion_dot": 3.939e-05,
        "meta_mean_motion_ddot": 0,
        "tle_line1": "1 37533U 93036BNN 25344.83029418  .00003939  00000+0  19185-2 0  9994",
        "tle_line2": "2 37533  74.0697 195.1706 0158043 252.2523 106.1316 14.12152288628948"
      },
      "geometry": {
        "type": "Point",
        "coordinates": [
          130.41792921278048,
          -72.13804981942566
        ]
      }
    },
    {
      "type": "Feature",
      "properties": {
        "norad_id": 37535,
        "name": "COSMOS 2251 DEB",
        "group": "cosmos-2251-debris",
        "lat": 69.8203054821143,
        "lon": -156.6116506818454,
        "alt_km": 698.1223257476049,
        "timestamp": "2025-12-12T03:50:52.816188+00:00",
        "meta_object_name": "COSMOS 2251 DEB",
        "meta_object_id": "1993-036BNQ",
        "meta_epoch": "2025-12-11T07:53:09.769056",
        "meta_mean_motion": 14.58442154,
        "meta_eccentricity": 0.00278828,
        "meta_inclination": 74.0235,
        "meta_ra_of_asc_node": 76.1879,
        "meta_arg_of_pericenter": 215.3986,
        "meta_mean_anomaly": 202.1257,
        "meta_ephemeris_type": 0,
        "meta_classification_type": "U",
        "meta_norad_cat_id": 37535,
        "meta_element_set_no": 999,
        "meta_rev_at_epoch": 85304,
        "meta_bstar": 0.0015071075,
        "meta_mean_motion_dot": 7.006e-05,
        "meta_mean_motion_ddot": 0,
        "tle_line1": "1 37535U 93036BNQ 25345.32858529  .00007006  00000+0  15071-2 0  9993",
        "tle_line2": "2 37535  74.0235  76.1879 0027882 215.3986 202.1257 14.58442154853042"
      },
      "geometry": {
        "type": "Point",
        "coordinates": [
          -156.6116506818454,
          69.8203054821143
        ]
      }
    },
    {
      "type": "Feature",
      "properties": {
        "norad_id": 37537,
        "name": "COSMOS 2251 DEB",
        "group": "cosmos-2251-debris",
        "lat": -22.37420160433348,
        "lon": -100.58357146122334,
        "alt_km": 759.2665879247552,
        "timestamp": "2025-12-12T03:50:52.816198+00:00",
        "meta_object_name": "COSMOS 2251 DEB",
        "meta_object_id": "1993-036BNS",
        "meta_epoch": "2025-12-11T11:15:11.696832",
        "meta_mean_motion": 14.37489039,
        "meta_eccentricity": 0.00502138,
        "meta_inclination": 74.0122,
        "meta_ra_of_asc_node": 267.468,
        "meta_arg_of_pericenter": 48.0201,
        "meta_mean_anomaly": 312.5213,
        "meta_ephemeris_type": 0,
        "meta_classification_type": "U",
        "meta_norad_cat_id": 37537,
        "meta_element_set_no": 999,
        "meta_rev_at_epoch": 85015,
        "meta_bstar": 0.0003879169,
        "meta_mean_motion_dot": 1.152e-05,
        "meta_mean_motion_ddot": 0,
        "tle_line1": "1 37537U 93036BNS 25345.46888538  .00001152  00000+0  38792-3 0  9995",
        "tle_line2": "2 37537  74.0122 267.4680 0050213  48.0201 312.5213 14.37489039850156"
      },
      "geometry": {
        "type": "Point",
        "coordinates": [
          -100.58357146122334,
          -22.37420160433348
        ]
      }
    },
    {
      "type": "Feature",
      "properties": {
        "norad_id": 37546,
        "name": "COSMOS 2251 DEB",
        "group": "cosmos-2251-debris",
        "lat": -32.55829013301606,
        "lon": 88.60558752038516,
        "alt_km": 637.0338385308851,
        "timestamp": "2025-12-12T03:50:52.816208+00:00",
        "meta_object_name": "COSMOS 2251 DEB",
        "meta_object_id": "1993-036BPB",
        "meta_epoch": "2025-12-10T14:41:58.458624",
        "meta_mean_motion": 14.80377439,
        "meta_eccentricity": 0.0005891,
        "meta_inclination": 74.0204,
        "meta_ra_of_asc_node": 102.2005,
        "meta_arg_of_pericenter": 116.7302,
        "meta_mean_anomaly": 243.4478,
        "meta_ephemeris_type": 0,
        "meta_classification_type": "U",
        "meta_norad_cat_id": 37546,
        "meta_element_set_no": 999,
        "meta_rev_at_epoch": 65856,
        "meta_bstar": 0.0047609,
        "meta_mean_motion_dot": 0.00036522,
        "meta_mean_motion_ddot": 0,
        "tle_line1": "1 37546U 93036BPB 25344.61248216  .00036522  00000+0  47609-2 0  9999",
        "tle_line2": "2 37546  74.0204 102.2005 0005891 116.7302 243.4478 14.80377439658565"
      },
      "geometry": {
        "type": "Point",
        "coordinates": [
          88.60558752038516,
          -32.55829013301606
        ]
      }
    },
    {
      "type": "Feature",
      "properties": {
        "norad_id": 37959,
        "name": "COSMOS 2251 DEB",
        "group": "cosmos-2251-debris",
        "lat": -25.831301486397106,
        "lon": -113.97315048892108,
        "alt_km": 663.7187195849392,
        "timestamp": "2025-12-12T03:50:52.816219+00:00",
        "meta_object_name": "COSMOS 2251 DEB",
        "meta_object_id": "1993-036BPJ",
        "meta_epoch": "2025-12-11T16:04:39.054144",
        "meta_mean_motion": 14.58134361,
        "meta_eccentricity": 0.00579142,
        "meta_inclination": 74.0105,
        "meta_ra_of_asc_node": 58.9822,
        "meta_arg_of_pericenter": 201.9689,
        "meta_mean_anomaly": 311.4152,
        "meta_ephemeris_type": 0,
        "meta_classification_type": "U",
        "meta_norad_cat_id": 37959,
        "meta_element_set_no": 999,
        "meta_rev_at_epoch": 80111,
        "meta_bstar": 0.0011590963,
        "meta_mean_motion_dot": 5.439e-05,
        "meta_mean_motion_ddot": 0,
        "tle_line1": "1 37959U 93036BPJ 25345.66989646  .00005439  00000+0  11591-2 0  9996",
        "tle_line2": "2 37959  74.0105  58.9822 0057914 201.9689 311.4152 14.58134361801111"
      },
      "geometry": {
        "type": "Point",
        "coordinates": [
          -113.97315048892108,
          -25.831301486397106
        ]
      }
    }
  ]
}